NORAD_CAT_ID,OBJECT_NAME,OBJECT_TYPE,EPOCH,MEAN_MOTION,ECCENTRICITY,INCLINATION,RA_OF_ASC_NODE,ARG_OF_PERICENTER,MEAN_ANOMALY,BSTAR,MEAN_MOTION_DOT,MEAN_MOTION_DDOT,TLE_LINE0,TLE_LINE1,TLE_LINE2,SEMIMAJOR_AXIS,PERIOD,APOGEE,PERIGEE,DECAYED
54167.0,STARLINK-5243,PAYLOAD,2024-07-24 03:13:12,15.08833148,0.0001438,53.2165,158.4703,97.1438,262.9717,-8.3417e-05,-1.615e-05,0.0,0 STARLINK-5243,1 54167U 22141L   24206.13416784 -.00001615  00000-0 -83417-4 0  9993,2 54167  53.2165 158.4703 0001438  97.1438 262.9717 15.08833148 96104,6917.901,95.438,540.761,538.772,0.0
54167.0,STARLINK-5243,PAYLOAD,2024-07-24 20:42:25,15.0884635,0.0001476,53.2168,155.1926,127.5258,232.5869,-4.9149e-05,-1.07e-05,0.0,0 STARLINK-5243,1 54167U 22141L   24206.86279813 -.00001070  00000-0 -49149-4 0  9992,2 54167  53.2168 155.1926 0001476 127.5258 232.5869 15.08846350 96210,6917.861,95.437,540.747,538.705,0.0
54167.0,STARLINK-5243,PAYLOAD,2024-07-25 06:14:44,15.08795028,0.0001862,53.2158,153.4182,105.9877,254.132,0.0010087,0.00015782,0.0,0 STARLINK-5243,1 54167U 22141L   24207.26024001  .00015782  00000-0  10087-2 0  9994,2 54167  53.2158 153.4182 0001862 105.9877 254.1320 15.08795028 96273,6918.018,95.44,541.171,538.595,0.0
54167.0,STARLINK-5243,PAYLOAD,2024-07-26 02:54:45,15.08834318,0.0001147,53.2161,149.5433,111.3029,248.8085,0.00010526,1.388e-05,0.0,0 STARLINK-5243,1 54167U 22141L   24208.12136022  .00001388  00000-0  10526-3 0  9993,2 54167  53.2161 149.5433 0001147 111.3029 248.8085 15.08834318 96407,6917.898,95.438,540.556,538.969,0.0
54167.0,STARLINK-5243,PAYLOAD,2024-07-26 06:05:31,15.08840147,0.0001154,53.2156,148.9589,91.7304,268.382,9.2146e-05,1.179e-05,0.0,0 STARLINK-5243,1 54167U 22141L   24208.25383921  .00001179  00000-0  92146-4 0  9996,2 54167  53.2156 148.9589 0001154  91.7304 268.3820 15.08840147 96435,6917.88,95.438,540.543,538.947,0.0
54167.0,STARLINK-5243,PAYLOAD,2024-07-27 20:14:47,15.08837692,0.0001166,53.2156,141.8199,100.8877,259.2246,5.6343e-05,6.09e-06,0.0,0 STARLINK-5243,1 54167U 22141L   24209.84360088  .00000609  00000-0  56343-4 0  9997,2 54167  53.2156 141.8199 0001166 100.8877 259.2246 15.08837692 96672,6917.887,95.438,540.559,538.946,0.0
54167.0,STARLINK-5243,PAYLOAD,2024-07-28 02:36:20,15.08828974,0.0001115,53.2164,140.6328,88.2082,271.9038,-2.6593e-05,-7.11e-06,0.0,0 STARLINK-5243,1 54167U 22141L   24210.10856968 -.00000711  00000-0 -26593-4 0  9995,2 54167  53.2164 140.6328 0001115  88.2082 271.9038 15.08828974 96700,6917.914,95.438,540.55,539.008,0.0
54167.0,STARLINK-5243,PAYLOAD,2024-07-28 18:30:12,15.088308,0.0001196,53.2166,137.6592,80.9206,279.1921,-3.3492e-05,-8.21e-06,0.0,0 STARLINK-5243,1 54167U 22141L   24210.77097228 -.00000821  00000-0 -33492-4 0  9992,2 54167  53.2166 137.6592 0001196  80.9206 279.1921 15.08830800 96811,6917.909,95.438,540.601,538.946,0.0
54167.0,STARLINK-5243,PAYLOAD,2024-07-29 02:27:06,15.0883323,0.0001257,53.2167,136.1736,81.5454,278.5681,0.0001724,2.456e-05,0.0,0 STARLINK-5243,1 54167U 22141L   24211.10216313  .00002456  00000-0  17240-3 0  9994,2 54167  53.2167 136.1736 0001257  81.5454 278.5681 15.08833230 96856,6917.901,95.438,540.636,538.897,0.0
54167.0,STARLINK-5243,PAYLOAD,2024-07-29 11:59:25,15.08833987,0.0001254,53.2167,134.3895,87.1549,272.9586,0.00016219,2.294e-05,0.0,0 STARLINK-5243,1 54167U 22141L   24211.49960549  .00002294  00000-0  16219-3 0  9998,2 54167  53.2167 134.3895 0001254  87.1549 272.9586 15.08833987 96925,6917.899,95.438,540.631,538.896,0.0
54167.0,STARLINK-5243,PAYLOAD,2024-07-30 02:17:54,15.08839076,0.0001401,53.2164,131.713,84.8548,275.2604,0.00018646,2.681e-05,0.0,0 STARLINK-5243,1 54167U 22141L   24212.09576558  .00002681  00000-0  18646-3 0  9994,2 54167  53.2164 131.7130 0001401  84.8548 275.2604 15.08839076 97015,6917.883,95.438,540.717,538.779,0.0
54167.0,STARLINK-5243,PAYLOAD,2024-07-30 22:57:55,15.08837779,0.0001335,53.2166,127.8457,84.5862,275.5282,0.00014816,2.071e-05,0.0,0 STARLINK-5243,1 54167U 22141L   24212.95688853  .00002071  00000-0  14816-3 0  9999,2 54167  53.2166 127.8457 0001335  84.5862 275.5282 15.08837779 97144,6917.887,95.438,540.676,538.829,0.0
54167.0,STARLINK-5243,PAYLOAD,2024-07-31 02:08:40,15.08851768,0.000137,53.2164,127.2507,90.5739,269.541,9.3695e-05,1.204e-05,0.0,0 STARLINK-5243,1 54167U 22141L   24213.08936042  .00001204  00000-0  93695-4 0  9990,2 54167  53.2164 127.2507 0001370  90.5739 269.5410 15.08851768 97152,6917.844,95.437,540.657,538.762,0.0
54167.0,STARLINK-5243,PAYLOAD,2024-07-31 11:40:59,15.08843747,0.0001415,53.2174,125.4697,87.4164,272.699,4.527e-05,4.33e-06,0.0,0 STARLINK-5243,1 54167U 22141L   24213.48680533  .00000433  00000-0  45270-4 0  9994,2 54167  53.2174 125.4697 0001415  87.4164 272.6990 15.08843747 97213,6917.869,95.437,540.713,538.755,0.0
54167.0,STARLINK-5243,PAYLOAD,2024-07-31 22:48:42,15.08837267,0.0001565,53.2169,123.3838,98.5211,261.5958,7.353e-06,-1.71e-06,0.0,0 STARLINK-5243,1 54167U 22141L   24213.95049130 -.00000171  00000-0  73530-5 0  9999,2 54167  53.2169 123.3838 0001565  98.5211 261.5958 15.08837267 97292,6917.889,95.438,540.836,538.671,0.0
54167.0,STARLINK-5243,PAYLOAD,2024-08-01 00:24:05,15.08841006,0.0001597,53.2167,123.086,95.8092,264.3082,-3.407e-06,-3.42e-06,0.0,0 STARLINK-5243,1 54167U 22141L   24214.01672964 -.00000342  00000-0 -34070-5 0  9991,2 54167  53.2167 123.0860 0001597  95.8092 264.3082 15.08841006 97301,6917.877,95.437,540.847,538.638,0.0
54167.0,STARLINK-5243,PAYLOAD,2024-08-01 21:04:05,15.0885526,0.0001402,53.2158,119.2228,97.2319,262.8832,3.7444e-05,3.08e-06,0.0,0 STARLINK-5243,1 54167U 22141L   24214.87783832  .00000308  00000-0  37444-4 0  9999,2 54167  53.2158 119.2228 0001402  97.2319 262.8832 15.08855260 97425,6917.834,95.437,540.669,538.729,0.0
54167.0,STARLINK-5243,PAYLOAD,2024-08-01 22:39:28,15.08857977,0.0001498,53.2167,118.926,99.2964,260.8198,6.356e-05,7.24e-06,0.0,0 STARLINK-5243,1 54167U 22141L   24214.94407574  .00000724  00000-0  63560-4 0  9993,2 54167  53.2167 118.9260 0001498  99.2964 260.8198 15.08857977 97442,6917.825,95.436,540.727,538.654,0.0
54167.0,STARLINK-5243,PAYLOAD,2024-08-02 00:14:51,15.0885756,0.0001442,53.2167,118.6302,93.0806,267.0351,6.0724e-05,6.79e-06,0.0,0 STARLINK-5243,1 54167U 22141L   24215.01031584  .00000679  00000-0  60724-4 0  9994,2 54167  53.2167 118.6302 0001442  93.0806 267.0351 15.08857560 97451,6917.827,95.436,540.689,538.694,0.0
54167.0,STARLINK-5243,PAYLOAD,2024-08-02 20:54:53,15.08831541,0.0001415,53.2161,114.7624,98.2056,261.9096,7.1598e-05,8.51e-06,0.0,0 STARLINK-5243,1 54167U 22141L   24215.87145508  .00000851  00000-0  71598-4 0  9993,2 54167  53.2161 114.7624 0001415  98.2056 261.9096 15.08831541 97576,6917.906,95.438,540.75,538.792,0.0
54167.0,STARLINK-5243,PAYLOAD,2024-08-02 22:30:16,15.0883253,0.0001458,53.2164,114.4655,105.3226,254.7927,7.5674e-05,9.16e-06,0.0,0 STARLINK-5243,1 54167U 22141L   24215.93769520  .00000916  00000-0  75674-4 0  9997,2 54167  53.2164 114.4655 0001458 105.3226 254.7927 15.08832530 97590,6917.903,95.438,540.777,538.76,0.0
54167.0,STARLINK-5243,PAYLOAD,2024-08-03 00:05:39,15.08832628,0.0001306,53.2149,114.1687,85.4271,274.687,6.1315e-05,6.88e-06,0.0,0 STARLINK-5243,1 54167U 22141L   24216.00393498  .00000688  00000-0  61315-4 0  9996,2 54167  53.2149 114.1687 0001306  85.4271 274.6870 15.08832628 97603,6917.903,95.438,540.671,538.864,0.0
54167.0,STARLINK-5243,PAYLOAD,2024-08-03 20:45:40,15.08846294,0.0001326,53.2154,110.3024,80.2133,279.9009,9.5475e-05,1.232e-05,0.0,0 STARLINK-5243,1 54167U 22141L   24216.86504932  .00001232  00000-0  95475-4 0  9997,2 54167  53.2154 110.3024 0001326  80.2133 279.9009 15.08846294 97723,6917.861,95.437,540.643,538.809,0.0
54167.0,STARLINK-5243,PAYLOAD,2024-08-03 22:21:03,15.08850648,0.0001361,53.2156,110.0057,80.8407,279.2739,0.00017691,2.53e-05,0.0,0 STARLINK-5243,1 54167U 22141L   24216.93128729  .00002530  00000-0  17691-3 0  9996,2 54167  53.2156 110.0057 0001361  80.8407 279.2739 15.08850648 97740,6917.848,95.437,540.654,538.771,0.0
54167.0,STARLINK-5243,PAYLOAD,2024-08-04 03:07:12,15.08862863,0.0001271,53.2151,109.1123,75.0201,285.0932,0.00055237,8.519e-05,0.0,0 STARLINK-5243,1 54167U 22141L   24217.13000352  .00008519  00000-0  55237-3 0  9991,2 54167  53.2151 109.1123 0001271  75.0201 285.0932 15.08862863 97760,6917.811,95.436,540.555,538.796,0.0
54167.0,STARLINK-5243,PAYLOAD,2024-08-04 20:36:27,15.08853328,0.0001772,53.2148,105.8383,113.7669,246.3509,0.00034188,5.159e-05,0.0,0 STARLINK-5243,1 54167U 22141L   24217.85864677  .00005159  00000-0  34188-3 0  9997,2 54167  53.2148 105.8383 0001772 113.7669 246.3509 15.08853328 97879,6917.84,95.437,540.93,538.479,0.0
54167.0,STARLINK-5243,PAYLOAD,2024-08-04 22:11:50,15.08854305,0.0001564,53.2151,105.5404,103.8404,256.2762,0.00038571,5.858e-05,0.0,0 STARLINK-5243,1 54167U 22141L   24217.92488657  .00005858  00000-0  38571-3 0  9991,2 54167  53.2151 105.5404 0001564 103.8404 256.2762 15.08854305 97899,6917.837,95.437,540.784,538.62,0.0
54167.0,STARLINK-5243,PAYLOAD,2024-08-05 01:22:36,15.08880407,0.0001441,53.216,104.9514,98.6905,261.4251,0.0016601,0.00026261,0.0,0 STARLINK-5243,1 54167U 22141L   24218.05736292  .00026261  00000-0  16601-2 0  9997,2 54167  53.2160 104.9514 0001441  98.6905 261.4251 15.08880407 97900,6917.757,95.435,540.619,538.625,0.0
54167.0,STARLINK-5243,PAYLOAD,2024-08-05 20:27:14,15.08822911,0.000148,53.2147,101.3822,83.1844,276.9317,0.0005472,8.427e-05,0.0,0 STARLINK-5243,1 54167U 22141L   24218.85225529  .00008427  00000-0  54720-3 0  9990,2 54167  53.2147 101.3822 0001480  83.1844 276.9317 15.08822911 98026,6917.933,95.439,540.821,538.774,0.0
54167.0,STARLINK-5243,PAYLOAD,2024-08-05 22:02:38,15.0882365,0.0001364,53.2149,101.0853,85.4609,274.6539,0.00075107,0.0001168,0.0,0 STARLINK-5243,1 54167U 22141L   24218.91849584  .00011680  00000-0  75107-3 0  9997,2 54167  53.2149 101.0853 0001364  85.4609 274.6539 15.08823650 98048,6917.93,95.439,540.739,538.852,0.0
